{
  "type": "FeatureCollection",
  "features": [
    {
      "type": "Feature",
      "properties": {
        "name": "Jalapao",
        "slug": "jalapao",
        "theme": "IA, resiliencia comunitaria e manejo territorial",
        "color": "#2C5530"
      },
      "geometry": {
        "type": "Polygon",
        "coordinates": [[[-46.9, -10.6], [-45.5, -10.7], [-45.4, -9.2], [-46.8, -9.1], [-46.9, -10.6]]]
      }
    },
    {
      "type": "Feature",
      "properties": {
        "name": "Bico do Papagaio",
        "slug": "bico-do-papagaio",
        "theme": "Agricultura familiar e politicas publicas",
        "color": "#8B6914"
      },
      "geometry": {
        "type": "Polygon",
        "coordinates": [[[-48.7, -6.9], [-47.2, -6.9], [-47.1, -5.4], [-48.5, -5.3], [-48.7, -6.9]]]
      }
    },
    {
      "type": "Feature",
      "properties": {
        "name": "Cantao",
        "slug": "cantao",
        "theme": "Turismo sustentavel e areas umidas",
        "color": "#4A7C59"
      },
      "geometry": {
        "type": "Polygon",
        "coordinates": [[[-50.6, -9.9], [-49.6, -9.9], [-49.5, -8.7], [-50.5, -8.7], [-50.6, -9.9]]]
      }
    },
    {
      "type": "Feature",
      "properties": {
        "name": "Lago de Palmas",
        "slug": "lago-de-palmas",
        "theme": "Educacao ambiental e sistemas aquaticos",
        "color": "#1E88E5"
      },
      "geometry": {
        "type": "Polygon",
        "coordinates": [[[-48.7, -10.6], [-48.0, -10.6], [-47.9, -9.8], [-48.6, -9.7], [-48.7, -10.6]]]
      }
    },
    {
      "type": "Feature",
      "properties": {
        "name": "Chapada dos Parecis",
        "slug": "chapada-dos-parecis",
        "theme": "Conservacao, paisagens produtivas e sociobiodiversidade",
        "color": "#E74C3C"
      },
      "geometry": {
        "type": "Polygon",
        "coordinates": [[[-59.8, -15.4], [-57.1, -15.4], [-57.0, -13.2], [-59.7, -13.1], [-59.8, -15.4]]]
      }
    }
  ]
}
